[{"OBJECT_NAME":"STARLINK-35091","OBJECT_ID":"2025-210U","EPOCH":"2026-03-09T22:48:44.945280","MEAN_MOTION":15.30212641,"ECCENTRICITY":0.00013612,"INCLINATION":53.1582,"RA_OF_ASC_NODE":305.6845,"ARG_OF_PERICENTER":110.4147,"MEAN_ANOMALY":249.7,"EPHEMERIS_TYPE":0,"CLASSIFICATION_TYPE":"U","NORAD_CAT_ID":65640,"ELEMENT_SET_NO":999,"REV_AT_EPOCH":2777,"BSTAR":0.00057092608,"MEAN_MOTION_DOT":0.00016594,"MEAN_MOTION_DDOT":0},{"OBJECT_NAME":"CZ-4C R\/B","OBJECT_ID":"2021-079B","EPOCH":"2026-03-09T14:04:29.438112","MEAN_MOTION":15.08928015,"ECCENTRICITY":0.0108377,"INCLINATION":98.3883,"RA_OF_ASC_NODE":282.6111,"ARG_OF_PERICENTER":26.1585,"MEAN_ANOMALY":334.506,"EPHEMERIS_TYPE":0,"CLASSIFICATION_TYPE":"U","NORAD_CAT_ID":49123,"ELEMENT_SET_NO":999,"REV_AT_EPOCH":24640,"BSTAR":0.00023549,"MEAN_MOTION_DOT":4.178e-5,"MEAN_MOTION_DDOT":0}]
